STARLINK-2022           
1 47643U 21012Z   23240.27460875  .00000808  00000+0  73146-4 0  9990
2 47643  53.0517 241.4820 0001380  90.9230 269.1917 15.06392740140415
